{"type":"FeatureCollection", "features": [
{"type":"Feature","geometry":{"type":"MultiPolygon","coordinates":[[[[-74.05314,40.5777],[-74.05293,40.5799],[-74.05469,40.57969],[-74.0549,40.57778],[-74.05314,40.5777]]],[[[-74.15946,40.64145],[-74.15756,40.64324],[-74.1581,40.64376],[-74.16153,40.64416],[-74.16111,40.64184],[-74.15946,40.64145]]],[[[-74.08221,40.64828],[-74.08484,40.64889],[-74.08767,40.64824],[-74.0894,40.64731],[-74.09469,40.64556],[-74.10013,40.64506],[-74.10307,40.64564],[-74.10886,40.64558],[-74.11116,40.6451],[-74.11333,40.64372],[-74.1177,40.64154],[-74.12145,40.6415],[-74.12416,40.64013],[-74.12931,40.64034],[-74.13435,40.64189],[-74.1423,40.64031],[-74.14395,40.63888],[-74.14484,40.63935],[-74.14878,40.63888],[-74.14979,40.63789],[-74.1527,40.63764],[-74.15789,40.63797],[-74.16228,40.63877],[-74.16563,40.64121],[-74.16906,40.64213],[-74.17149,40.64177],[-74.17297,40.64424],[-74.17415,40.64508],[-74.17571,40.64457],[-74.17667,40.64339],[-74.17879,40.6425],[-74.17933,40.6444],[-74.18298,40.64479],[-74.18652,40.64339],[-74.19372,40.63757],[-74.19734,40.633],[-74.20014,40.63148],[-74.20099,40.62934],[-74.20158,40.6235],[-74.20104,40.6201],[-74.20035,40.61829],[-74.20045,40.61633],[-74.20244,40.61328],[-74.20282,40.60827],[-74.20222,40.60597],[-74.19876,40.60171],[-74.1973,40.59802],[-74.19751,40.5968],[-74.19994,40.59337],[-74.20247,40.59084],[-74.20465,40.58929],[-74.2042,40.58641],[-74.2044,40.58371],[-74.20598,40.58042],[-74.20592,40.57862],[-74.20704,40.57641],[-74.20707,40.57474],[-74.20887,40.56891],[-74.21138,40.56349],[-74.21117,40.5605],[-74.21201,40.55836],[-74.21379,40.5564],[-74.21974,40.55461],[-74.22143,40.55538],[-74.22607,40.55621],[-74.22872,40.5563],[-74.23061,40.55558],[-74.2327,40.55293],[-74.2349,40.55301],[-74.23635,40.55237],[-74.2365,40.55043],[-74.24046,40.54763],[-74.2418,40.547],[-74.24364,40.54767],[-74.24614,40.5457],[-74.24768,40.54313],[-74.24548,40.54063],[-74.24443,40.53802],[-74.24496,40.53724],[-74.24221,40.5346],[-74.24155,40.53087],[-74.24225,40.52982],[-74.24334,40.52585],[-74.2426,40.52206],[-74.24293,40.52123],[-74.24003,40.52031],[-74.24232,40.51833],[-74.24432,40.51851],[-74.24521,40.51729],[-74.24752,40.51574],[-74.24851,40.51623],[-74.25213,40.51371],[-74.25308,40.51214],[-74.25332,40.50986],[-74.25545,40.50803],[-74.25523,40.50393],[-74.25341,40.50051],[-74.2511,40.49893],[-74.24972,40.49689],[-74.24676,40.49613],[-74.24421,40.49757],[-74.23967,40.4977],[-74.23687,40.49996],[-74.23124,40.50183],[-74.22844,40.50226],[-74.22521,40.50177],[-74.22283,40.50252],[-74.21995,40.50272],[-74.21752,40.50339],[-74.21552,40.50573],[-74.2126,40.50739],[-74.20999,40.51055],[-74.20757,40.51186],[-74.20083,40.51303],[-74.19969,40.51145],[-74.19681,40.51007],[-74.1941,40.51064],[-74.18971,40.51532],[-74.18483,40.51934],[-74.18117,40.52066],[-74.17981,40.52055],[-74.17762,40.51933],[-74.17601,40.52088],[-74.17136,40.52345],[-74.17,40.52305],[-74.16223,40.5272],[-74.1589,40.52794],[-74.15611,40.52932],[-74.15246,40.53207],[-74.14972,40.53349],[-74.14794,40.53492],[-74.14474,40.5358],[-74.14383,40.53714],[-74.14177,40.53854],[-74.1422,40.54197],[-74.13874,40.54491],[-74.13641,40.54625],[-74.13347,40.54686],[-74.12976,40.54575],[-74.12741,40.54257],[-74.12799,40.54071],[-74.13354,40.53581],[-74.13483,40.5353],[-74.13999,40.53549],[-74.14061,40.53413],[-74.1392,40.53164],[-74.13883,40.52989],[-74.13619,40.52962],[-74.13356,40.53151],[-74.13071,40.53454],[-74.12638,40.54052],[-74.1225,40.54486],[-74.11949,40.54569],[-74.11804,40.54731],[-74.11655,40.54787],[-74.11279,40.54788],[-74.11028,40.5515],[-74.10769,40.55398],[-74.10509,40.55313],[-74.1031,40.5559],[-74.10185,40.55622],[-74.1008,40.55832],[-74.09829,40.55933],[-74.09612,40.56259],[-74.09405,40.56298],[-74.09124,40.56651],[-74.08655,40.56963],[-74.08091,40.57469],[-74.0758,40.57831],[-74.07178,40.58188],[-74.07096,40.58318],[-74.06722,40.58673],[-74.06478,40.58849],[-74.06503,40.58899],[-74.06215,40.59203],[-74.05985,40.59378],[-74.05719,40.5964],[-74.05287,40.59987],[-74.05402,40.60493],[-74.05381,40.60591],[-74.0565,40.60725],[-74.05716,40.60874],[-74.06034,40.6119],[-74.06144,40.61438],[-74.06391,40.61687],[-74.06998,40.62142],[-74.07226,40.62461],[-74.0723,40.62714],[-74.07333,40.63206],[-74.07291,40.63363],[-74.07353,40.63764],[-74.07309,40.63862],[-74.07324,40.64218],[-74.07148,40.64281],[-74.07202,40.64441],[-74.07445,40.64507],[-74.07651,40.64697],[-74.079,40.64814],[-74.08221,40.64828]]]]},"properties":{"boroname":"Staten Island","borocode":"5"}},
{"type":"Feature","geometry":{"type":"MultiPolygon","coordinates":[[[[-73.86327,40.58388],[-73.86167,40.58614],[-73.86125,40.58799],[-73.86327,40.59091],[-73.86635,40.59189],[-73.86981,40.58946],[-73.87116,40.58687],[-73.87051,40.58334],[-73.86895,40.58171],[-73.86773,40.58166],[-73.86449,40.58361],[-73.86327,40.58388]]],[[[-73.9199,40.5996],[-73.92227,40.59838],[-73.92162,40.59714],[-73.91786,40.59471],[-73.91596,40.59211],[-73.91482,40.59152],[-73.91322,40.59214],[-73.91306,40.59407],[-73.91626,40.59816],[-73.91866,40.59947],[-73.9199,40.5996]]],[[[-73.85243,40.59733],[-73.85077,40.59884],[-73.85277,40.60095],[-73.85483,40.60187],[-73.85906,40.60206],[-73.86113,40.60255],[-73.86336,40.60032],[-73.86275,40.59907],[-73.86044,40.59647],[-73.85716,40.59604],[-73.85493,40.5963],[-73.85243,40.59733]]],[[[-73.86966,40.60654],[-73.87104,40.60972],[-73.873,40.61056],[-73.87246,40.60819],[-73.87106,40.60629],[-73.86966,40.60654]]],[[[-73.85048,40.61234],[-73.85322,40.61014],[-73.85551,40.61014],[-73.85555,40.60898],[-73.85427,40.60783],[-73.84943,40.60986],[-73.84957,40.61153],[-73.85048,40.61234]]],[[[-73.84473,40.61397],[-73.8457,40.61293],[-73.84595,40.60803],[-73.84755,40.60698],[-73.84741,40.60508],[-73.84461,40.60504],[-73.84362,40.6044],[-73.84113,40.60469],[-73.84141,40.60644],[-73.83877,40.60807],[-73.83864,40.60896],[-73.83623,40.61219],[-73.83798,40.6131],[-73.84071,40.61163],[-73.84264,40.61317],[-73.84473,40.61397]]],[[[-73.83395,40.61576],[-73.8337,40.62098],[-73.83571,40.61954],[-73.83496,40.61778],[-73.8373,40.61577],[-73.83496,40.61447],[-73.83395,40.61576]]],[[[-73.85023,40.62332],[-73.8518,40.6206],[-73.85359,40.62046],[-73.85464,40.62159],[-73.85711,40.62097],[-73.85656,40.61972],[-73.85083,40.62033],[-73.84964,40.62137],[-73.85023,40.62332]]],[[[-73.84589,40.62497],[-73.8452,40.62298],[-73.84309,40.62336],[-73.84475,40.6248],[-73.84589,40.62497]]],[[[-73.86873,40.61736],[-73.86576,40.6185],[-73.86493,40.62111],[-73.86651,40.62375],[-73.86498,40.62566],[-73.86519,40.62766],[-73.86645,40.62826],[-73.87481,40.62359],[-73.87779,40.62165],[-73.87974,40.61893],[-73.87952,40.61656],[-73.87862,40.61594],[-73.87395,40.61584],[-73.86873,40.61736]]],[[[-73.853,40.63202],[-73.85252,40.63374],[-73.85435,40.63372],[-73.85525,40.63287],[-73.85758,40.63272],[-73.85856,40.63046],[-73.85776,40.62994],[-73.85475,40.63024],[-73.85262,40.6313],[-73.853,40.63202]]],[[[-73.84638,40.63529],[-73.84427,40.63669],[-73.84668,40.63873],[-73.84813,40.63774],[-73.84886,40.63544],[-73.8498,40.6343],[-73.85009,40.63227],[-73.84789,40.63273],[-73.84638,40.63529]]],[[[-73.91922,40.70782],[-73.92189,40.7094],[-73.92155,40.71104],[-73.92223,40.71286],[-73.92434,40.71412],[-73.92483,40.71528],[-73.92306,40.71634],[-73.92458,40.71795],[-73.9278,40.72493],[-73.92786,40.72583],[-73.92958,40.72761],[-73.93693,40.72911],[-73.93975,40.73107],[-73.94115,40.73415],[-73.94239,40.73543],[-73.95039,40.73828],[-73.95323,40.73899],[-73.95693,40.73889],[-73.95982,40.73707],[-73.96229,40.73405],[-73.96171,40.73157],[-73.96167,40.73148],[-73.96128,40.73016],[-73.96128,40.73006],[-73.96102,40.7287],[-73.96201,40.72399],[-73.96207,40.72388],[-73.96403,40.72088],[-73.96407,40.7208],[-73.9642,40.72065],[-73.96427,40.72058],[-73.96436,40.72048],[-73.9644,40.72044],[-73.96503,40.72038],[-73.96512,40.72032],[-73.96574,40.71871],[-73.96576,40.71869],[-73.96656,40.71802],[-73.9666,40.71797],[-73.96885,40.71321],[-73.96994,40.7093],[-73.96929,40.70709],[-73.97018,40.70493],[-73.97255,40.7062],[-73.97339,40.70573],[-73.96899,40.70175],[-73.96983,40.70025],[-73.97284,40.70273],[-73.97319,40.70167],[-73.97601,40.70195],[-73.97928,40.70579],[-73.98233,40.70555],[-73.98246,40.70554],[-73.98344,40.70564],[-73.99213,40.70469],[-73.99477,40.70395],[-73.99488,40.70379],[-73.9948,40.70329],[-73.99505,40.70313],[-73.99514,40.70297],[-73.9967,40.70088],[-73.9975,40.69964],[-73.99802,40.69876],[-73.99838,40.69806],[-73.99887,40.69716],[-74.00027,40.69497],[-74.00096,40.69407],[-74.00127,40.6933],[-74.00174,40.69241],[-74.0018,40.69227],[-74.00181,40.69224],[-74.00197,40.69184],[-74.0007,40.69061],[-74.00298,40.69043],[-74.00341,40.68961],[-74.00382,40.68893],[-74.00459,40.68822],[-74.005,40.68761],[-74.00563,40.68678],[-74.00816,40.68617],[-74.01193,40.68389],[-74.00967,40.68327],[-74.01302,40.68041],[-74.01411,40.68171],[-74.01213,40.68291],[-74.01282,40.68362],[-74.01928,40.67965],[-74.01798,40.67657],[-74.01818,40.67446],[-74.01427,40.67138],[-74.01163,40.67058],[-74.01088,40.6686],[-74.01228,40.66573],[-74.01669,40.66544],[-74.01751,40.67103],[-74.01858,40.67039],[-74.01789,40.66585],[-74.01575,40.66457],[-74.01154,40.66509],[-74.00985,40.66852],[-74.00662,40.66862],[-74.006,40.66789],[-74.00289,40.66735],[-74.00292,40.66646],[-73.99953,40.6644],[-74.00114,40.6629],[-74.00486,40.66506],[-74.00623,40.66279],[-74.00868,40.66337],[-74.01037,40.6624],[-74.00746,40.66056],[-74.0086,40.65952],[-74.01265,40.66198],[-74.01402,40.66153],[-74.01111,40.65971],[-74.01184,40.65891],[-74.01554,40.66076],[-74.01746,40.65945],[-74.01442,40.65761],[-74.01585,40.65621],[-74.01861,40.65785],[-74.01911,40.65737],[-74.01639,40.65562],[-74.01787,40.65406],[-74.02115,40.65421],[-74.0209,40.65125],[-74.02491,40.65111],[-74.02554,40.64978],[-74.02415,40.64762],[-74.02572,40.64662],[-74.02821,40.64402],[-74.03052,40.64527],[-74.0319,40.64389],[-74.03407,40.64431],[-74.0367,40.64169],[-74.03571,40.64064],[-74.03672,40.63914],[-74.04109,40.6301],[-74.04188,40.62452],[-74.04162,40.62056],[-74.04048,40.61563],[-74.03903,40.61316],[-74.03728,40.61162],[-74.03611,40.60939],[-74.03271,40.60633],[-74.02931,40.6046],[-74.02086,40.60352],[-74.01914,40.60261],[-74.01473,40.60207],[-74.01237,40.60135],[-74.00922,40.59984],[-74.00557,40.59757],[-74.003,40.59535],[-74.0011,40.59252],[-73.99948,40.59297],[-73.99867,40.5892],[-73.99788,40.58834],[-73.99535,40.58933],[-73.99408,40.58869],[-73.99815,40.58653],[-74.00018,40.58307],[-73.99606,40.58213],[-73.99267,40.58359],[-73.99034,40.58422],[-73.9917,40.58186],[-73.98739,40.57909],[-73.98899,40.57884],[-73.99215,40.57932],[-73.99964,40.58132],[-74.00294,40.58143],[-74.00605,40.58198],[-74.01054,40.58061],[-74.01235,40.57922],[-74.01301,40.57776],[-74.01202,40.57489],[-74.01007,40.57383],[-74.0048,40.57288],[-74.00078,40.57049],[-73.99736,40.57028],[-73.99316,40.57038],[-73.97859,40.5719],[-73.97547,40.57197],[-73.96856,40.57313],[-73.9544,40.57437],[-73.95278,40.5742],[-73.94592,40.57512],[-73.94405,40.57581],[-73.94251,40.57537],[-73.9315,40.57566],[-73.93106,40.57627],[-73.9325,40.58115],[-73.94274,40.581],[-73.9497,40.58232],[-73.9533,40.582],[-73.95349,40.58299],[-73.94629,40.58357],[-73.93809,40.58312],[-73.93708,40.58333],[-73.93118,40.58272],[-73.93052,40.58323],[-73.92713,40.58358],[-73.92321,40.58344],[-73.91501,40.58154],[-73.91148,40.58184],[-73.91286,40.58307],[-73.91238,40.58462],[-73.91304,40.58591],[-73.91521,40.58628],[-73.92001,40.58466],[-73.92529,40.58464],[-73.9297,40.58761],[-73.93109,40.58933],[-73.93156,40.59255],[-73.93283,40.5948],[-73.93002,40.59409],[-73.93054,40.59026],[-73.93003,40.58943],[-73.92776,40.58866],[-73.9252,40.58581],[-73.92101,40.58575],[-73.9182,40.58639],[-73.91714,40.58755],[-73.91472,40.58866],[-73.91495,40.59037],[-73.91641,40.59114],[-73.91783,40.59282],[-73.92252,40.59604],[-73.92505,40.59828],[-73.9284,40.60053],[-73.92923,40.60049],[-73.93149,40.60211],[-73.93196,40.60312],[-73.92983,40.60368],[-73.92935,40.60262],[-73.92475,40.59976],[-73.92394,40.59971],[-73.92209,40.60173],[-73.91862,40.60067],[-73.9158,40.59926],[-73.91355,40.59672],[-73.91208,40.59448],[-73.91144,40.59108],[-73.91203,40.58885],[-73.91192,40.58643],[-73.91089,40.58595],[-73.90684,40.58699],[-73.90428,40.58691],[-73.90088,40.58805],[-73.8988,40.58746],[-73.8966,40.58264],[-73.89651,40.57901],[-73.89552,40.57677],[-73.89104,40.57788],[-73.88614,40.57813],[-73.88175,40.57916],[-73.8797,40.58014],[-73.87672,40.58491],[-73.87879,40.58803],[-73.87897,40.58973],[-73.88076,40.59463],[-73.88081,40.59617],[-73.88181,40.59937],[-73.88339,40.60302],[-73.88272,40.60418],[-73.88478,40.60514],[-73.88716,40.60532],[-73.89158,40.60345],[-73.89558,40.60301],[-73.89933,40.60355],[-73.90332,40.60259],[-73.90784,40.60227],[-73.90914,40.60164],[-73.9133,40.60225],[-73.9156,40.60394],[-73.91924,40.60739],[-73.91802,40.60887],[-73.91805,40.61028],[-73.91573,40.61183],[-73.91663,40.61344],[-73.91493,40.61396],[-73.9145,40.61165],[-73.91616,40.61052],[-73.91674,40.60681],[-73.91353,40.60393],[-73.91092,40.60351],[-73.90833,40.60407],[-73.90978,40.60582],[-73.90934,40.60648],[-73.90597,40.60638],[-73.90521,40.60491],[-73.90168,40.60609],[-73.90221,40.61034],[-73.90778,40.61524],[-73.90964,40.61658],[-73.90884,40.61731],[-73.90697,40.61606],[-73.90055,40.61044],[-73.9011,40.60701],[-73.90014,40.6056],[-73.89673,40.60564],[-73.89275,40.6072],[-73.89225,40.60918],[-73.8903,40.61032],[-73.88979,40.61169],[-73.8925,40.61379],[-73.89542,40.61441],[-73.89662,40.61713],[-73.89562,40.61975],[-73.89647,40.62143],[-73.89812,40.62185],[-73.90043,40.62165],[-73.90269,40.62421],[-73.91659,40.63045],[-73.91461,40.63107],[-73.90413,40.62631],[-73.89519,40.6225],[-73.89149,40.62448],[-73.89042,40.62628],[-73.88828,40.62789],[-73.88513,40.62883],[-73.88369,40.62756],[-73.88263,40.62827],[-73.88405,40.62956],[-73.88301,40.63163],[-73.88127,40.63237],[-73.87821,40.63457],[-73.87714,40.63598],[-73.88079,40.63976],[-73.88374,40.64245],[-73.88603,40.64366],[-73.88809,40.64621],[-73.89108,40.64879],[-73.88996,40.64926],[-73.88764,40.6478],[-73.88764,40.64633],[-73.88558,40.64404],[-73.88342,40.64452],[-73.88215,40.64374],[-73.88048,40.64112],[-73.87835,40.63887],[-73.87711,40.63864],[-73.87348,40.63629],[-73.86956,40.63795],[-73.87009,40.63984],[-73.87327,40.6439],[-73.87319,40.64545],[-73.87119,40.64531],[-73.87002,40.64407],[-73.86867,40.64093],[-73.86732,40.63987],[-73.86531,40.64075],[-73.86201,40.64289],[-73.85717,40.64368],[-73.85838,40.64727],[-73.85722,40.65028],[-73.86099,40.65521],[-73.86264,40.65567],[-73.86317,40.65828],[-73.8603,40.65963],[-73.85851,40.6599],[-73.85812,40.66204],[-73.85843,40.66345],[-73.85612,40.66381],[-73.85568,40.66387],[-73.85725,40.67017],[-73.85728,40.67032],[-73.85763,40.67166],[-73.85947,40.67138],[-73.86039,40.67125],[-73.86235,40.67916],[-73.86328,40.67908],[-73.86331,40.67917],[-73.8641,40.68237],[-73.86602,40.68192],[-73.86629,40.68312],[-73.8665,40.68447],[-73.86702,40.68683],[-73.86806,40.69118],[-73.86892,40.69515],[-73.87402,40.69419],[-73.87951,40.69115],[-73.88378,40.68786],[-73.88452,40.68668],[-73.88808,40.68529],[-73.89015,40.685],[-73.89258,40.68349],[-73.89414,40.68525],[-73.89491,40.68451],[-73.89647,40.68234],[-73.89653,40.6824],[-73.90116,40.68788],[-73.90042,40.68818],[-73.90189,40.69108],[-73.90207,40.692],[-73.9058,40.69413],[-73.90426,40.6957],[-73.90953,40.69868],[-73.91181,40.69995],[-73.91068,40.70105],[-73.9129,40.70236],[-73.91181,40.70343],[-73.91477,40.70519],[-73.9159,40.70585],[-73.91848,40.70738],[-73.91922,40.70782]]]]},"properties":{"boroname":"Brooklyn","borocode":"3"}},
{"type":"Feature","geometry":{"type":"MultiPolygon","coordinates":[[[[-73.83193,40.59345],[-73.834,40.59362],[-73.8357,40.59481],[-73.83746,40.59686],[-73.84057,40.5973],[-73.8435,40.59508],[-73.84336,40.59347],[-73.8405,40.59121],[-73.83647,40.58947],[-73.83357,40.58904],[-73.83117,40.59149],[-73.83193,40.59345]]],[[[-73.80997,40.60007],[-73.81004,40.60265],[-73.81429,40.60446],[-73.81498,40.60218],[-73.81305,40.5995],[-73.81158,40.59814],[-73.80997,40.60007]]],[[[-73.80032,40.60706],[-73.80307,40.60639],[-73.80394,40.60559],[-73.80242,40.60422],[-73.79732,40.60407],[-73.79635,40.60579],[-73.79806,40.60671],[-73.80032,40.60706]]],[[[-73.79666,40.60896],[-73.80099,40.60867],[-73.80319,40.60736],[-73.7979,40.60687],[-73.7964,40.60619],[-73.79531,40.6065],[-73.79666,40.60896]]],[[[-73.8273,40.60949],[-73.82777,40.60777],[-73.82926,40.60706],[-73.82909,40.60582],[-73.82689,40.60507],[-73.82453,40.60504],[-73.82602,40.60911],[-73.8273,40.60949]]],[[[-73.83213,40.60952],[-73.83395,40.60832],[-73.83574,40.60579],[-73.83495,40.60522],[-73.83113,40.60525],[-73.82999,40.60619],[-73.83021,40.60811],[-73.83213,40.60952]]],[[[-73.76669,40.61425],[-73.77191,40.61392],[-73.77354,40.61353],[-73.77377,40.61126],[-73.77211,40.61144],[-73.76894,40.60918],[-73.77002,40.60719],[-73.77057,40.60476],[-73.77019,40.60275],[-73.77115,40.59937],[-73.77301,40.59788],[-73.77422,40.599],[-73.77497,40.60174],[-73.77628,40.60108],[-73.77742,40.59881],[-73.78018,40.59721],[-73.78199,40.59898],[-73.7799,40.60075],[-73.77826,40.60036],[-73.77643,40.60249],[-73.7749,40.60522],[-73.77417,40.60865],[-73.77492,40.60952],[-73.77857,40.60964],[-73.78099,40.60791],[-73.78396,40.60487],[-73.78351,40.60256],[-73.78528,40.60158],[-73.78599,40.60029],[-73.78917,40.59788],[-73.78918,40.59519],[-73.79086,40.59501],[-73.79124,40.59663],[-73.79033,40.5992],[-73.78769,40.60133],[-73.78786,40.60311],[-73.79154,40.60036],[-73.79398,40.59956],[-73.80292,40.59887],[-73.80511,40.59715],[-73.8031,40.59456],[-73.80603,40.59555],[-73.80711,40.59528],[-73.80805,40.59365],[-73.80417,40.59185],[-73.80436,40.59131],[-73.80902,40.59335],[-73.81082,40.59208],[-73.81884,40.58825],[-73.82146,40.58677],[-73.82326,40.58747],[-73.82785,40.58614],[-73.82852,40.58485],[-73.83584,40.58288],[-73.83865,40.58272],[-73.83935,40.58186],[-73.84521,40.58158],[-73.84861,40.58219],[-73.85044,40.58213],[-73.85306,40.58126],[-73.86554,40.57464],[-73.87598,40.56952],[-73.8783,40.56869],[-73.88122,40.56878],[-73.88446,40.56789],[-73.8849,40.5685],[-73.88959,40.56794],[-73.89314,40.5684],[-73.89549,40.56687],[-73.89613,40.56536],[-73.89984,40.5633],[-73.90161,40.56275],[-73.90287,40.56351],[-73.90665,40.56279],[-73.91008,40.56492],[-73.9122,40.56505],[-73.91519,40.56409],[-73.91766,40.56283],[-73.92108,40.56208],[-73.92616,40.56155],[-73.93178,40.5579],[-73.93684,40.55678],[-73.93962,40.55442],[-73.94029,40.5522],[-73.94013,40.54801],[-73.94047,40.54286],[-73.93055,40.54643],[-73.92642,40.54816],[-73.91948,40.55062],[-73.9088,40.55483],[-73.90444,40.55637],[-73.897,40.55689],[-73.89209,40.55805],[-73.88327,40.56085],[-73.88041,40.56147],[-73.87625,40.5631],[-73.87258,40.5641],[-73.86925,40.56538],[-73.86356,40.56703],[-73.86255,40.56681],[-73.8572,40.5691],[-73.8522,40.57075],[-73.84616,40.57303],[-73.83778,40.57592],[-73.83387,40.57765],[-73.82496,40.58014],[-73.81352,40.58347],[-73.80807,40.584],[-73.80372,40.58502],[-73.79665,40.58637],[-73.78453,40.58848],[-73.78057,40.58956],[-73.77735,40.59009],[-73.76813,40.59074],[-73.76134,40.59173],[-73.75592,40.59087],[-73.75169,40.59131],[-73.74913,40.59322],[-73.74666,40.5943],[-73.74291,40.59483],[-73.73799,40.59456],[-73.73886,40.59678],[-73.73836,40.5976],[-73.73823,40.60257],[-73.7434,40.60747],[-73.74311,40.60772],[-73.74576,40.61199],[-73.74722,40.61218],[-73.75009,40.61164],[-73.75346,40.61052],[-73.75648,40.61018],[-73.75944,40.61035],[-73.76508,40.61205],[-73.76516,40.61375],[-73.76669,40.61425]]],[[[-73.76672,40.615],[-73.76746,40.62051],[-73.76855,40.62056],[-73.77088,40.61586],[-73.76672,40.615]]],[[[-73.79882,40.62533],[-73.79885,40.62654],[-73.80163,40.6256],[-73.80595,40.62338],[-73.80641,40.62111],[-73.80362,40.61602],[-73.80187,40.61677],[-73.80132,40.61861],[-73.80023,40.61959],[-73.79868,40.62343],[-73.79995,40.62444],[-73.79882,40.62533]]],[[[-73.83395,40.61576],[-73.83402,40.61438],[-73.83148,40.61501],[-73.82846,40.61422],[-73.82704,40.6134],[-73.82556,40.61413],[-73.82289,40.61034],[-73.8221,40.61016],[-73.82126,40.60714],[-73.8229,40.60585],[-73.82294,40.60258],[-73.82444,40.60034],[-73.82806,40.59768],[-73.82948,40.59813],[-73.83076,40.59745],[-73.83239,40.5978],[-73.8342,40.59666],[-73.83472,40.59506],[-73.83322,40.59422],[-73.82548,40.59508],[-73.82414,40.59463],[-73.8212,40.59471],[-73.81849,40.59939],[-73.81831,40.60134],[-73.81725,40.60394],[-73.81523,40.60705],[-73.81477,40.60885],[-73.81603,40.61237],[-73.81555,40.61431],[-73.81712,40.61528],[-73.81776,40.61731],[-73.81718,40.61927],[-73.81543,40.62012],[-73.81866,40.62288],[-73.81795,40.62409],[-73.81623,40.62469],[-73.81789,40.62591],[-73.81826,40.627],[-73.81994,40.62768],[-73.82108,40.62973],[-73.82204,40.63385],[-73.82277,40.63558],[-73.82338,40.63899],[-73.82414,40.63879],[-73.82443,40.63622],[-73.82809,40.63588],[-73.82867,40.63661],[-73.83222,40.63893],[-73.83341,40.6385],[-73.8312,40.63237],[-73.83196,40.62965],[-73.8329,40.6289],[-73.83247,40.62758],[-73.83077,40.62675],[-73.83097,40.62458],[-73.8337,40.62098],[-73.83395,40.61576]]],[[[-73.85851,40.6599],[-73.8603,40.65963],[-73.86317,40.65828],[-73.85933,40.65494],[-73.85852,40.65331],[-73.85691,40.65295],[-73.85616,40.65149],[-73.85389,40.65064],[-73.85058,40.65035],[-73.85243,40.64727],[-73.85208,40.64618],[-73.84951,40.64413],[-73.84579,40.6441],[-73.83861,40.64535],[-73.83592,40.6455],[-73.83998,40.6619],[-73.83889,40.6614],[-73.83597,40.64935],[-73.83453,40.64803],[-73.83149,40.64789],[-73.8308,40.64898],[-73.83157,40.65117],[-73.82846,40.64912],[-73.82347,40.64977],[-73.82492,40.65567],[-73.82348,40.66006],[-73.82005,40.66159],[-73.8183,40.66197],[-73.81151,40.66077],[-73.81309,40.66019],[-73.8187,40.66111],[-73.82247,40.65916],[-73.82342,40.65603],[-73.82215,40.65014],[-73.81882,40.64659],[-73.81203,40.6443],[-73.8067,40.64178],[-73.80045,40.63914],[-73.79726,40.63801],[-73.79474,40.63663],[-73.79222,40.63589],[-73.79075,40.63385],[-73.78958,40.63415],[-73.78691,40.63226],[-73.78435,40.63137],[-73.78328,40.62895],[-73.78488,40.62663],[-73.78924,40.62295],[-73.79076,40.62233],[-73.79436,40.62264],[-73.79616,40.61967],[-73.79725,40.61675],[-73.79906,40.61549],[-73.80049,40.61164],[-73.79913,40.61161],[-73.79506,40.61049],[-73.79365,40.60899],[-73.78995,40.60898],[-73.78371,40.61187],[-73.78126,40.61332],[-73.78079,40.61459],[-73.78323,40.61558],[-73.78516,40.61865],[-73.78419,40.62089],[-73.77947,40.62732],[-73.77654,40.62765],[-73.77408,40.62578],[-73.77091,40.6224],[-73.77172,40.62096],[-73.77025,40.61982],[-73.76884,40.62394],[-73.7664,40.62835],[-73.76053,40.63066],[-73.75901,40.63149],[-73.75264,40.63361],[-73.74845,40.63564],[-73.7474,40.64132],[-73.74617,40.64038],[-73.74705,40.63696],[-73.74626,40.63644],[-73.74422,40.63802],[-73.74273,40.63827],[-73.74098,40.63732],[-73.74257,40.63526],[-73.73947,40.63571],[-73.74227,40.64012],[-73.74166,40.6422],[-73.74144,40.64689],[-73.73904,40.6482],[-73.73514,40.64973],[-73.73029,40.65037],[-73.72523,40.652],[-73.72498,40.65425],[-73.72644,40.65916],[-73.72793,40.66175],[-73.72786,40.66507],[-73.72827,40.66643],[-73.72756,40.67416],[-73.72624,40.67722],[-73.72563,40.67959],[-73.72616,40.68845],[-73.72705,40.7095],[-73.72697,40.71071],[-73.72918,40.71917],[-73.73033,40.72216],[-73.72567,40.72404],[-73.71693,40.72639],[-73.7105,40.72723],[-73.70766,40.72783],[-73.70081,40.73844],[-73.70002,40.73924],[-73.70163,40.75249],[-73.70783,40.75622],[-73.71658,40.76178],[-73.72098,40.76476],[-73.72153,40.76482],[-73.7377,40.77479],[-73.74404,40.77859],[-73.74687,40.77888],[-73.75021,40.7824],[-73.75184,40.78234],[-73.75391,40.77978],[-73.75514,40.77641],[-73.75337,40.77321],[-73.75557,40.77153],[-73.7547,40.76971],[-73.75494,40.76609],[-73.75864,40.76736],[-73.75881,40.76818],[-73.76418,40.77283],[-73.767,40.7767],[-73.76816,40.7794],[-73.77408,40.78592],[-73.77379,40.78683],[-73.77174,40.78746],[-73.77063,40.78846],[-73.7721,40.79013],[-73.77236,40.79154],[-73.77401,40.79402],[-73.77618,40.7961],[-73.77827,40.79673],[-73.78154,40.79566],[-73.7807,40.79365],[-73.78108,40.79168],[-73.78568,40.79034],[-73.79028,40.79032],[-73.79269,40.78878],[-73.79378,40.78912],[-73.79496,40.7919],[-73.79433,40.79353],[-73.7946,40.79494],[-73.7965,40.79512],[-73.80066,40.79635],[-73.80461,40.79614],[-73.81182,40.79746],[-73.81287,40.79718],[-73.81595,40.7985],[-73.81913,40.80055],[-73.82079,40.80056],[-73.82254,40.79896],[-73.82523,40.7973],[-73.82719,40.79751],[-73.82879,40.79594],[-73.82779,40.7933],[-73.82911,40.7919],[-73.83174,40.79101],[-73.83212,40.78877],[-73.83378,40.78851],[-73.83555,40.78952],[-73.83715,40.78956],[-73.83751,40.79103],[-73.83663,40.79252],[-73.8384,40.79676],[-73.8406,40.79681],[-73.8419,40.79562],[-73.84451,40.79488],[-73.84624,40.79616],[-73.84871,40.79542],[-73.84934,40.79337],[-73.85277,40.79439],[-73.85374,40.79229],[-73.85266,40.79109],[-73.85445,40.79027],[-73.85479,40.78858],[-73.85701,40.78665],[-73.85912,40.78573],[-73.85808,40.78372],[-73.85545,40.78314],[-73.85539,40.78208],[-73.84926,40.78227],[-73.84991,40.78109],[-73.8498,40.77877],[-73.84895,40.77793],[-73.84896,40.77374],[-73.84995,40.77206],[-73.84859,40.77062],[-73.849,40.76915],[-73.84781,40.76677],[-73.84395,40.76549],[-73.84298,40.76442],[-73.84412,40.76314],[-73.84869,40.76014],[-73.85159,40.75936],[-73.85712,40.76119],[-73.85941,40.76248],[-73.86269,40.76688],[-73.86017,40.76694],[-73.85768,40.76828],[-73.85505,40.7722],[-73.86471,40.77673],[-73.87256,40.78082],[-73.86942,40.78359],[-73.86978,40.78534],[-73.87125,40.78604],[-73.87516,40.78151],[-73.87834,40.78303],[-73.87931,40.78185],[-73.87871,40.78059],[-73.88139,40.7806],[-73.88493,40.77994],[-73.88506,40.77841],[-73.88432,40.77418],[-73.88945,40.77353],[-73.89009,40.77778],[-73.8912,40.77856],[-73.89158,40.78063],[-73.89382,40.78238],[-73.89606,40.78316],[-73.89886,40.7828],[-73.89583,40.78522],[-73.89694,40.78662],[-73.90033,40.78901],[-73.90986,40.79095],[-73.9126,40.78938],[-73.91683,40.78519],[-73.91717,40.78419],[-73.91909,40.78337],[-73.92487,40.77863],[-73.92632,40.77824],[-73.92988,40.77622],[-73.93179,40.77787],[-73.93508,40.77794],[-73.93765,40.77509],[-73.93747,40.77253],[-73.93557,40.77192],[-73.93469,40.77043],[-73.93681,40.7689],[-73.93984,40.76799],[-73.9435,40.7645],[-73.95131,40.75458],[-73.9545,40.75123],[-73.95507,40.74963],[-73.95704,40.74892],[-73.95934,40.74551],[-73.95876,40.74495],[-73.96155,40.74199],[-73.96132,40.74047],[-73.96243,40.73967],[-73.96217,40.73828],[-73.96073,40.73808],[-73.95747,40.73954],[-73.9538,40.73982],[-73.95192,40.73949],[-73.9418,40.73596],[-73.94007,40.73376],[-73.93911,40.73138],[-73.93648,40.72969],[-73.9313,40.72873],[-73.92856,40.72784],[-73.92656,40.72567],[-73.92419,40.72428],[-73.92509,40.72247],[-73.92424,40.72143],[-73.92393,40.71903],[-73.92233,40.71608],[-73.92412,40.71514],[-73.92223,40.71286],[-73.92155,40.71104],[-73.92189,40.7094],[-73.91922,40.70782],[-73.91848,40.70738],[-73.9159,40.70585],[-73.91477,40.70519],[-73.91181,40.70343],[-73.9129,40.70236],[-73.91068,40.70105],[-73.91181,40.69995],[-73.90953,40.69868],[-73.90426,40.6957],[-73.9058,40.69413],[-73.90207,40.692],[-73.90189,40.69108],[-73.90042,40.68818],[-73.90116,40.68788],[-73.89653,40.6824],[-73.89647,40.68234],[-73.89491,40.68451],[-73.89414,40.68525],[-73.89258,40.68349],[-73.89015,40.685],[-73.88808,40.68529],[-73.88452,40.68668],[-73.88378,40.68786],[-73.87951,40.69115],[-73.87402,40.69419],[-73.86892,40.69515],[-73.86806,40.69118],[-73.86702,40.68683],[-73.8665,40.68447],[-73.86629,40.68312],[-73.86602,40.68192],[-73.8641,40.68237],[-73.86331,40.67917],[-73.86328,40.67908],[-73.86235,40.67916],[-73.86039,40.67125],[-73.85947,40.67138],[-73.85763,40.67166],[-73.85728,40.67032],[-73.85725,40.67017],[-73.85568,40.66387],[-73.85612,40.66381],[-73.85843,40.66345],[-73.85812,40.66204],[-73.85851,40.6599]]]]},"properties":{"boroname":"Queens","borocode":"4"}},
{"type":"Feature","geometry":{"type":"MultiPolygon","coordinates":[[[[-74.00298,40.69043],[-74.00534,40.69109],[-74.00576,40.69024],[-74.00341,40.68961],[-74.00298,40.69043]]],[[[-74.04388,40.69019],[-74.04599,40.6911],[-74.0472,40.69042],[-74.04478,40.6886],[-74.04388,40.69019]]],[[[-74.0007,40.69061],[-74.00197,40.69184],[-74.00441,40.69253],[-74.00479,40.69176],[-74.0007,40.69061]]],[[[-74.01675,40.69334],[-74.01944,40.69322],[-74.02021,40.69203],[-74.02617,40.68643],[-74.02658,40.68524],[-74.02465,40.68398],[-74.02276,40.68428],[-74.01605,40.68734],[-74.01317,40.68815],[-74.01231,40.68928],[-74.01218,40.69114],[-74.01422,40.69282],[-74.01675,40.69334]]],[[[-74.00174,40.69241],[-74.00127,40.6933],[-74.00345,40.69405],[-74.00401,40.69321],[-74.00174,40.69241]]],[[[-74.00096,40.69407],[-74.00027,40.69497],[-74.0024,40.69571],[-74.00301,40.69478],[-74.00096,40.69407]]],[[[-73.99838,40.69806],[-74.00049,40.69876],[-74.00105,40.69791],[-73.99887,40.69716],[-73.99838,40.69806]]],[[[-74.03995,40.70089],[-74.0411,40.70049],[-74.04367,40.69802],[-74.04166,40.69645],[-74.03771,40.69934],[-74.03995,40.70089]]],[[[-73.9967,40.70088],[-73.99514,40.70297],[-73.99619,40.70338],[-73.99814,40.70152],[-73.9967,40.70088]]],[[[-73.9418,40.76905],[-73.9402,40.77113],[-73.94213,40.77203],[-73.94472,40.76973],[-73.94909,40.76426],[-73.95366,40.75948],[-73.96069,40.7512],[-73.95791,40.75211],[-73.95254,40.7571],[-73.94943,40.76055],[-73.94286,40.7683],[-73.9418,40.76905]]],[[[-73.92134,40.80085],[-73.92263,40.80187],[-73.92528,40.802],[-73.92651,40.80066],[-73.92748,40.79812],[-73.92689,40.79625],[-73.92827,40.79321],[-73.92714,40.79193],[-73.92787,40.79095],[-73.92972,40.79137],[-73.93148,40.79048],[-73.93571,40.78568],[-73.93607,40.78422],[-73.93502,40.78301],[-73.93064,40.78226],[-73.92849,40.78101],[-73.92448,40.78232],[-73.92285,40.78356],[-73.92189,40.7857],[-73.91851,40.78943],[-73.91514,40.79201],[-73.9138,40.79451],[-73.91545,40.79706],[-73.92031,40.79938],[-73.92134,40.80085]]],[[[-73.92641,40.87762],[-73.92901,40.87574],[-73.93191,40.87113],[-73.93243,40.86757],[-73.93756,40.86008],[-73.94029,40.85664],[-73.94187,40.85387],[-73.94303,40.85263],[-73.94705,40.85022],[-73.94679,40.847],[-73.94612,40.84389],[-73.94843,40.83986],[-73.95021,40.8343],[-73.95359,40.8291],[-73.95504,40.82741],[-73.95726,40.82712],[-73.95956,40.82369],[-73.95794,40.82277],[-73.9634,40.81668],[-73.96885,40.80875],[-73.97161,40.8051],[-73.98054,40.79246],[-73.98796,40.78177],[-73.98887,40.77969],[-73.99093,40.77757],[-73.99657,40.76942],[-73.99646,40.7681],[-73.99915,40.76421],[-74.00097,40.76342],[-74.00313,40.76108],[-74.00542,40.75732],[-74.00762,40.75428],[-74.00995,40.74893],[-74.00906,40.74779],[-74.00951,40.74368],[-74.0114,40.74182],[-74.01159,40.73927],[-74.01039,40.73917],[-74.01116,40.73045],[-74.01402,40.73068],[-74.01439,40.72846],[-74.01138,40.72823],[-74.01254,40.7215],[-74.01341,40.72002],[-74.01321,40.71832],[-74.01671,40.71862],[-74.0178,40.71235],[-74.01934,40.70607],[-74.01845,40.70416],[-74.01514,40.70084],[-74.01349,40.70048],[-74.01111,40.7009],[-74.00332,40.70563],[-74.00145,40.70487],[-74.00119,40.70686],[-73.99728,40.70873],[-73.98874,40.70997],[-73.98815,40.70916],[-73.98125,40.70983],[-73.97826,40.7105],[-73.97643,40.71191],[-73.9741,40.71709],[-73.97315,40.71999],[-73.97149,40.72735],[-73.97148,40.72925],[-73.97341,40.73128],[-73.97444,40.73532],[-73.97249,40.7358],[-73.97266,40.73922],[-73.97189,40.74272],[-73.97079,40.74441],[-73.96532,40.75105],[-73.95878,40.75827],[-73.95442,40.76218],[-73.94866,40.76886],[-73.94293,40.77468],[-73.942,40.77619],[-73.94344,40.77976],[-73.94365,40.78266],[-73.94247,40.7839],[-73.93983,40.78526],[-73.93812,40.78718],[-73.93583,40.79109],[-73.93348,40.79277],[-73.9302,40.79459],[-73.92904,40.79676],[-73.92903,40.80108],[-73.93116,40.80497],[-73.93356,40.8076],[-73.93434,40.80956],[-73.93379,40.81715],[-73.93442,40.82704],[-73.93517,40.83287],[-73.93492,40.83523],[-73.93081,40.84272],[-73.92972,40.84523],[-73.92114,40.85755],[-73.9195,40.85879],[-73.91709,40.86186],[-73.91392,40.86475],[-73.91103,40.86916],[-73.91065,40.8723],[-73.91229,40.87363],[-73.91634,40.87452],[-73.9206,40.87299],[-73.92176,40.87334],[-73.92268,40.87487],[-73.92238,40.87676],[-73.92641,40.87762]]],[[[-73.90746,40.87355],[-73.90682,40.87659],[-73.90704,40.8769],[-73.90765,40.87743],[-73.9095,40.87878],[-73.91149,40.87902],[-73.91206,40.87812],[-73.91485,40.87667],[-73.91579,40.87572],[-73.91167,40.87449],[-73.90893,40.87216],[-73.90746,40.87355]]]]},"properties":{"boroname":"Manhattan","borocode":"1"}},
{"type":"Feature","geometry":{"type":"MultiPolygon","coordinates":[[[[-73.87287,40.78598],[-73.87081,40.7879],[-73.8712,40.79],[-73.87288,40.79145],[-73.87492,40.7923],[-73.87789,40.79432],[-73.88392,40.7958],[-73.88719,40.7983],[-73.89061,40.79777],[-73.89179,40.79678],[-73.89282,40.79282],[-73.89218,40.79039],[-73.89057,40.79011],[-73.8894,40.78779],[-73.88831,40.78701],[-73.88596,40.78675],[-73.87831,40.78536],[-73.87677,40.7858],[-73.87288,40.78596],[-73.87287,40.78598]]],[[[-73.89833,40.80241],[-73.89939,40.80194],[-73.89979,40.79951],[-73.89864,40.7991],[-73.89647,40.80079],[-73.89833,40.80241]]],[[[-73.80222,40.84163],[-73.80393,40.84259],[-73.80681,40.84249],[-73.80695,40.84146],[-73.80264,40.84108],[-73.80222,40.84163]]],[[[-73.78922,40.85874],[-73.79206,40.85651],[-73.79129,40.85458],[-73.79114,40.85206],[-73.79012,40.85119],[-73.78976,40.84953],[-73.79136,40.84823],[-73.79148,40.8468],[-73.78823,40.8422],[-73.7873,40.83967],[-73.78574,40.83923],[-73.78558,40.83793],[-73.7841,40.83673],[-73.78188,40.83765],[-73.78154,40.84078],[-73.78347,40.84365],[-73.78305,40.8455],[-73.78149,40.84858],[-73.78358,40.84927],[-73.78448,40.85107],[-73.78796,40.85347],[-73.78922,40.85874]]],[[[-73.76783,40.85444],[-73.76533,40.85504],[-73.76836,40.85766],[-73.76836,40.85836],[-73.77085,40.8601],[-73.77219,40.85999],[-73.77214,40.85441],[-73.77247,40.85171],[-73.77089,40.84975],[-73.77157,40.8475],[-73.76901,40.8451],[-73.76789,40.84529],[-73.7696,40.84759],[-73.76861,40.85079],[-73.76939,40.85254],[-73.76783,40.85444]]],[[[-73.78457,40.86053],[-73.78692,40.86027],[-73.78514,40.85879],[-73.78457,40.86053]]],[[[-73.90746,40.87355],[-73.90893,40.87216],[-73.9095,40.86883],[-73.91091,40.86594],[-73.91462,40.8621],[-73.91721,40.85893],[-73.91957,40.85684],[-73.92256,40.85319],[-73.92465,40.84979],[-73.92862,40.84468],[-73.93052,40.83993],[-73.933,40.83568],[-73.93361,40.83279],[-73.93247,40.82158],[-73.93238,40.81465],[-73.93287,40.81041],[-73.93228,40.80836],[-73.93052,40.80659],[-73.92763,40.8027],[-73.92293,40.80237],[-73.92133,40.80128],[-73.92024,40.79961],[-73.91372,40.79679],[-73.91169,40.79662],[-73.9083,40.79896],[-73.90817,40.79946],[-73.90453,40.80317],[-73.90219,40.80482],[-73.89853,40.80543],[-73.89829,40.8061],[-73.89198,40.80638],[-73.88796,40.805],[-73.88505,40.80213],[-73.87921,40.8028],[-73.87814,40.80132],[-73.87355,40.80085],[-73.87175,40.80155],[-73.86811,40.80675],[-73.87166,40.81325],[-73.8725,40.81389],[-73.87673,40.81539],[-73.87652,40.81613],[-73.87172,40.81492],[-73.86977,40.81342],[-73.86766,40.81058],[-73.8644,40.81028],[-73.86034,40.8095],[-73.85908,40.80998],[-73.85839,40.80826],[-73.85813,40.80547],[-73.85585,40.80451],[-73.85015,40.80453],[-73.84749,40.80545],[-73.84842,40.80737],[-73.84997,40.80858],[-73.84903,40.81212],[-73.84617,40.81068],[-73.84209,40.81806],[-73.84029,40.81963],[-73.83983,40.82157],[-73.84303,40.82893],[-73.84221,40.83155],[-73.83992,40.83332],[-73.83941,40.8346],[-73.8403,40.83952],[-73.83919,40.83871],[-73.839,40.83338],[-73.84189,40.83071],[-73.84222,40.82834],[-73.83905,40.82269],[-73.83893,40.819],[-73.84005,40.81792],[-73.83954,40.81582],[-73.84026,40.81144],[-73.83691,40.80593],[-73.83432,40.80516],[-73.83169,40.80495],[-73.83219,40.80762],[-73.83184,40.80926],[-73.83033,40.81075],[-73.82879,40.81136],[-73.82631,40.81128],[-73.82118,40.81295],[-73.81648,40.81385],[-73.814,40.81355],[-73.80857,40.81216],[-73.80714,40.81066],[-73.80405,40.80875],[-73.80175,40.80904],[-73.79885,40.80718],[-73.79505,40.80561],[-73.79339,40.8042],[-73.79104,40.80426],[-73.79006,40.80541],[-73.79073,40.80659],[-73.79229,40.80685],[-73.79854,40.80959],[-73.80235,40.81004],[-73.80391,40.81211],[-73.80476,40.81203],[-73.80568,40.81503],[-73.8032,40.81351],[-73.80146,40.81294],[-73.79903,40.81554],[-73.79759,40.81651],[-73.80247,40.81854],[-73.80337,40.81825],[-73.80573,40.82018],[-73.80586,40.8219],[-73.807,40.82532],[-73.80965,40.82528],[-73.81327,40.82397],[-73.81404,40.82448],[-73.81383,40.82682],[-73.81265,40.82756],[-73.81382,40.82997],[-73.81549,40.8323],[-73.81645,40.83777],[-73.81478,40.83908],[-73.81542,40.84239],[-73.81346,40.84366],[-73.81421,40.84601],[-73.81617,40.84702],[-73.81532,40.84858],[-73.81721,40.85183],[-73.81641,40.85408],[-73.81231,40.85416],[-73.81273,40.85888],[-73.81382,40.86055],[-73.81641,40.86118],[-73.8151,40.86306],[-73.8133,40.86325],[-73.81085,40.86233],[-73.8083,40.8597],[-73.80464,40.85997],[-73.80354,40.85565],[-73.80454,40.85474],[-73.80418,40.85334],[-73.80183,40.85013],[-73.80158,40.84896],[-73.8001,40.8483],[-73.79819,40.85059],[-73.79796,40.85299],[-73.79905,40.85405],[-73.79685,40.85626],[-73.79435,40.85653],[-73.79487,40.85808],[-73.7936,40.86052],[-73.79189,40.86107],[-73.79146,40.86227],[-73.79224,40.86505],[-73.79142,40.86746],[-73.78915,40.86906],[-73.78505,40.8693],[-73.78353,40.87036],[-73.78315,40.8723],[-73.78506,40.87201],[-73.78714,40.87276],[-73.78701,40.87379],[-73.78468,40.87606],[-73.78422,40.87828],[-73.78611,40.87906],[-73.78952,40.879],[-73.78906,40.88121],[-73.79076,40.88084],[-73.7926,40.87966],[-73.7944,40.87764],[-73.79317,40.87706],[-73.79479,40.8732],[-73.79767,40.8724],[-73.80175,40.86641],[-73.804,40.86713],[-73.80494,40.8683],[-73.80081,40.87149],[-73.79981,40.87416],[-73.79744,40.87514],[-73.79625,40.87701],[-73.79492,40.88054],[-73.79301,40.88336],[-73.80291,40.88603],[-73.81828,40.88985],[-73.82285,40.89121],[-73.82367,40.8899],[-73.83804,40.89414],[-73.83965,40.89733],[-73.83925,40.8995],[-73.84065,40.9014],[-73.84139,40.90417],[-73.84489,40.90419],[-73.84482,40.90553],[-73.85017,40.90751],[-73.85092,40.90662],[-73.85348,40.90753],[-73.85692,40.90597],[-73.85601,40.90531],[-73.85947,40.90052],[-73.88303,40.90733],[-73.88606,40.90831],[-73.9006,40.91261],[-73.90246,40.91296],[-73.91011,40.9154],[-73.91143,40.91282],[-73.91265,40.90807],[-73.92059,40.88718],[-73.92381,40.88032],[-73.92359,40.87895],[-73.92207,40.87857],[-73.91978,40.87642],[-73.91776,40.87566],[-73.91579,40.87572],[-73.91485,40.87667],[-73.91206,40.87812],[-73.91149,40.87902],[-73.9095,40.87878],[-73.90765,40.87743],[-73.90704,40.8769],[-73.90682,40.87659],[-73.90746,40.87355]]]]},"properties":{"boroname":"Bronx","borocode":"2"}}
]}